     2.01           GLONASS NAV DATA                        RINEX VERSION / TYPE
CCRINEXG V1.4 UX    CDDIS               23-JUL-24 22:09     PGM / RUN BY / DATE 
IGS BROADCAST EPHEMERIS FILE                                COMMENT             
teqc  2019Feb25     GPS Operator        20240723  1:02:     COMMENT             
  2024     7    23    0.931322574616D-09                    CORR TO SYSTEM TIME 
    18                                                      LEAP SECONDS        
                                                            END OF HEADER       
18 24  7 23  5 15  0.0 0.153335742652D-03 0.909494701773D-12 0.180000000000D+05
    0.154341552734D+04 0.204991531372D+01 0.372529029846D-08 0.000000000000D+00
   -0.143671738281D+05-0.202957153320D+01-0.372529029846D-08-0.300000000000D+01
   -0.209977456055D+05 0.154216766357D+01 0.000000000000D+00 0.000000000000D+00
19 24  7 23  5 15  0.0-0.284867361188D-03-0.909494701773D-12 0.180900000000D+05
   -0.106943129883D+05 0.239017295837D+01 0.186264514923D-08 0.000000000000D+00
   -0.418418945312D+04-0.201107597351D+01-0.931322574616D-09 0.300000000000D+01
   -0.227792084961D+05-0.753882408142D+00 0.186264514923D-08 0.000000000000D+00
20 24  7 23  5 15  0.0-0.116556882858D-03 0.000000000000D+00 0.180000000000D+05
   -0.203924624023D+05 0.113311481476D+01 0.000000000000D+00 0.000000000000D+00
    0.120661855469D+05-0.678287506104D+00 0.279396772385D-08 0.200000000000D+01
   -0.948382031250D+04-0.329495525360D+01 0.279396772385D-08 0.000000000000D+00
21 24  7 23  5 15  0.0-0.119814649224D-03-0.363797880709D-11 0.180000000000D+05
   -0.146396469727D+05-0.724666595459D+00-0.279396772385D-08 0.000000000000D+00
    0.189967797852D+05 0.960768699646D+00 0.465661287308D-08 0.400000000000D+01
    0.863269531250D+04-0.334461021423D+01 0.186264514923D-08 0.000000000000D+00
22 24  7 23  5 15  0.0 0.835703685880D-04-0.636646291241D-11 0.180000000000D+05
   -0.609105957031D+03-0.214490985870D+01-0.279396772385D-08 0.000000000000D+00
    0.140002065430D+05 0.197611522675D+01 0.372529029846D-08-0.300000000000D+01
    0.213388774414D+05-0.135861778259D+01-0.000000000000D+00 0.000000000000D+00
23 24  7 23  5 15  0.0-0.127633102238D-03-0.909494701773D-12 0.180000000000D+05
    0.130356123047D+05-0.227266216278D+01-0.186264514923D-08 0.000000000000D+00
    0.142335351562D+04 0.196238327026D+01 0.000000000000D+00 0.300000000000D+01
    0.218691572266D+05 0.122585296631D+01-0.279396772385D-08 0.000000000000D+00
24 24  7 23  5 15  0.0-0.648386776447D-04-0.909494701773D-12 0.193200000000D+05
    0.199734282227D+05-0.995380401611D+00 0.000000000000D+00 0.000000000000D+00
   -0.131540781250D+05 0.721580505371D+00-0.372529029846D-08 0.200000000000D+01
    0.891941845703D+04 0.329561805725D+01-0.372529029846D-08 0.000000000000D+00
25 24  7 23  5 15  0.0-0.977581366897D-04-0.181898940355D-11 0.180000000000D+05
   -0.146185776367D+05-0.859453201294D+00-0.279396772385D-08 0.400000000000D+01
    0.186984458008D+05 0.954865455627D+00 0.465661287308D-08-0.500000000000D+01
    0.931356640625D+04-0.326914119721D+01 0.931322574616D-09 0.000000000000D+00
 1 24  7 23  5 45  0.0 0.922325998545D-04 0.909494701773D-12 0.198000000000D+05
    0.140812885742D+05 0.904277801514D+00-0.186264514923D-08 0.000000000000D+00
    0.153567773438D+05 0.180443859100D+01-0.000000000000D+00 0.100000000000D+01
   -0.147092900391D+05 0.275106906891D+01 0.186264514923D-08 0.000000000000D+00
 2 24  7 23  5 45  0.0-0.238288193941D-04-0.000000000000D+00 0.198000000000D+05
    0.110739716797D+05 0.114012432098D+01 0.000000000000D+00 0.100000000000D+01
   -0.838337402344D+03 0.293849945068D+01-0.372529029846D-08-0.400000000000D+01
   -0.229261777344D+05 0.436371803284D+00 0.186264514923D-08 0.000000000000D+00
 3 24  7 23  5 45  0.0 0.104269944131D-03 0.000000000000D+00 0.198000000000D+05
    0.233801220703D+04 0.814981460571D+00 0.279396772385D-08 0.000000000000D+00
   -0.175515717773D+05 0.238471317291D+01-0.465661287308D-08 0.500000000000D+01
   -0.182909448242D+05-0.218415451050D+01 0.000000000000D+00 0.000000000000D+00
 4 24  7 23  5 45  0.0 0.246467068791D-03 0.181898940355D-11 0.198000000000D+05
   -0.724924072266D+04 0.885009765625D-03 0.372529029846D-08 0.000000000000D+00
   -0.241426074219D+05 0.565641403198D+00-0.372529029846D-08 0.600000000000D+01
   -0.383315136719D+04-0.354073524475D+01-0.931322574616D-09 0.000000000000D+00
 5 24  7 23  5 45  0.0 0.134940259159D-03 0.909494701773D-12 0.198000000000D+05
   -0.129796235352D+05-0.770462989807D+00 0.186264514923D-08 0.000000000000D+00
   -0.179035507812D+05-0.156934833527D+01 0.000000000000D+00 0.100000000000D+01
    0.127032001953D+05-0.300293254852D+01-0.186264514923D-08 0.000000000000D+00
 6 24  7 23  5 45  0.0-0.173004344106D-03-0.909494701773D-12 0.198000000000D+05
   -0.106660815430D+05-0.124656677246D+01-0.000000000000D+00 0.000000000000D+00
    0.278132275391D+04-0.289477443695D+01 0.372529029846D-08-0.400000000000D+01
    0.229888715820D+05-0.229491233826D+00-0.931322574616D-09 0.000000000000D+00
 7 24  7 23  5 45  0.0 0.872621312738D-04 0.909494701773D-12 0.198000000000D+05
   -0.195943505859D+04-0.773725509644D+00-0.186264514923D-08 0.000000000000D+00
    0.181017382812D+05-0.232253170013D+01 0.465661287308D-08 0.500000000000D+01
    0.179267900391D+05 0.226070117950D+01 0.000000000000D+00 0.000000000000D+00
 8 24  7 23  5 45  0.0-0.609364360571D-05 0.000000000000D+00 0.198000000000D+05
    0.751270996094D+04-0.748348236084D-02-0.279396772385D-08 0.000000000000D+00
    0.241210678711D+05-0.532999038696D+00 0.279396772385D-08 0.600000000000D+01
    0.370954736328D+04 0.353188419342D+01 0.931322574616D-09 0.000000000000D+00
 9 24  7 23  5 45  0.0 0.199257396162D-03 0.272848410532D-11 0.213000000000D+05
   -0.242513442383D+05-0.109273815155D+01 0.931322574616D-09 0.000000000000D+00
    0.111518066406D+04-0.267677307129D-01 0.186264514923D-08-0.200000000000D+01
   -0.794413525391D+04 0.331398391724D+01 0.186264514923D-08 0.000000000000D+00
11 24  7 23  5 45  0.0 0.173225998879D-04-0.181898940355D-11 0.198000000000D+05
    0.497980224609D+04-0.301719379425D+01-0.931322574616D-09 0.000000000000D+00
    0.113830698242D+05-0.462993621826D+00-0.931322574616D-09 0.000000000000D+00
   -0.222590097656D+05-0.912944793701D+00 0.279396772385D-08 0.000000000000D+00
12 24  7 23  5 45  0.0 0.427784398198D-04 0.000000000000D+00 0.198000000000D+05
    0.221811406250D+05-0.130441284180D+01-0.186264514923D-08 0.000000000000D+00
    0.796738037109D+04-0.326370239258D+00-0.186264514923D-08-0.100000000000D+01
   -0.973774023438D+04-0.322705554962D+01 0.931322574616D-09 0.000000000000D+00
13 24  7 23  5 45  0.0-0.496907159686D-04-0.000000000000D+00 0.198000000000D+05
    0.249080571289D+05 0.759287834168D+00-0.186264514923D-08 0.000000000000D+00
    0.697488769531D+03-0.403890609741D-01-0.186264514923D-08-0.200000000000D+01
    0.545053710938D+04-0.346017932892D+01-0.931322574616D-09 0.000000000000D+00
14 24  7 23  5 45  0.0 0.267215073109D-04 0.000000000000D+00 0.198000000000D+05
    0.122257895508D+05 0.281346702576D+01-0.000000000000D+00 0.000000000000D+00
   -0.849740380859D+04 0.330888748169D+00-0.000000000000D+00-0.700000000000D+01
    0.207234370117D+05-0.152758216858D+01-0.279396772385D-08 0.000000000000D+00
15 24  7 23  5 45  0.0 0.776099041104D-04 0.000000000000D+00 0.198000000000D+05
   -0.672175976562D+04 0.293044090271D+01 0.000000000000D+00 0.000000000000D+00
   -0.115770522461D+05 0.478781700134D+00 0.931322574616D-09 0.000000000000D+00
    0.217401538086D+05 0.116132545471D+01-0.279396772385D-08 0.000000000000D+00
16 24  7 23  5 45  0.0 0.276071950793D-04 0.909494701773D-12 0.198000000000D+05
   -0.221084135742D+05 0.133303928375D+01 0.186264514923D-08 0.000000000000D+00
   -0.791867285156D+04 0.348252296448D+00 0.279396772385D-08-0.100000000000D+01
    0.100226635742D+05 0.321697235107D+01-0.931322574616D-09 0.000000000000D+00
17 24  7 23  5 45  0.0 0.107080675662D-03 0.363797880709D-11 0.198000000000D+05
    0.149454008789D+05 0.747842788696D-01 0.186264514923D-08 0.000000000000D+00
   -0.205102929688D+05-0.436512947082D+00-0.558793544769D-08 0.400000000000D+01
   -0.281739111328D+04 0.356412506103D+01-0.279396772385D-08 0.000000000000D+00
18 24  7 23  5 45  0.0 0.153338536620D-03 0.909494701773D-12 0.198000000000D+05
    0.467366259766D+04 0.141442489624D+01 0.279396772385D-08 0.000000000000D+00
   -0.179829873047D+05-0.193966293335D+01-0.558793544769D-08-0.300000000000D+01
   -0.174442324219D+05 0.238055229187D+01-0.000000000000D+00 0.000000000000D+00
19 24  7 23  5 45  0.0-0.284869223833D-03-0.909494701773D-12 0.200700000000D+05
   -0.662054394531D+04 0.209630584717D+01 0.279396772385D-08 0.000000000000D+00
   -0.818525488281D+04-0.239919090271D+01-0.279396772385D-08 0.300000000000D+01
   -0.232385244141D+05 0.246806144714D+00 0.186264514923D-08 0.000000000000D+00
20 24  7 23  5 45  0.0-0.116556882858D-03-0.000000000000D+00 0.198000000000D+05
   -0.179759448242D+05 0.150634670258D+01 0.000000000000D+00 0.000000000000D+00
    0.101935766602D+05-0.140828800201D+01 0.186264514923D-08 0.200000000000D+01
   -0.149721103516D+05-0.276357460022D+01 0.279396772385D-08 0.000000000000D+00
21 24  7 23  5 45  0.0-0.119821168482D-03-0.363797880709D-11 0.198300000000D+05
   -0.153027255859D+05-0.332946777344D-01-0.931322574616D-09 0.000000000000D+00
    0.202481401367D+05 0.392219543457D+00 0.465661287308D-08 0.400000000000D+01
    0.235585400391D+04-0.358426666260D+01 0.186264514923D-08 0.000000000000D+00
22 24  7 23  5 45  0.0 0.835582613945D-04-0.636646291241D-11 0.198000000000D+05
   -0.394631298828D+04-0.154627513886D+01-0.186264514923D-08 0.000000000000D+00
    0.175602426758D+05 0.193321895599D+01 0.465661287308D-08-0.300000000000D+01
    0.181020034180D+05-0.221466159821D+01 0.000000000000D+00 0.000000000000D+00
